SL-14 R/B               
1 18749U 88001B   21247.53235918  .00000104  00000-0  98235-5 0  9995
2 18749  82.5137 301.4663 0017193 275.1941 220.1015 14.83272106797693
COSMOS 1933             
1 18958U 88020A   21248.20100398  .00000650  00000-0  44947-4 0  9992
2 18958  82.5276  56.0410 0013104  79.1788 281.0913 15.03985097823091
SL-3 R/B                
1 19046U 88032B   21248.03169017  .00000883  00000-0  68969-4 0  9996
2 19046  97.3897 254.9103 0038210 131.1535 229.2998 15.03001344804028
SL-16 R/B               
1 19120U 88039B   21247.93120160  .00000109  00000-0  74661-4 0  9997
2 19120  71.0155 309.3144 0022724 339.9824  20.0407 14.19225352724980
COSMOS 1953             
1 19210U 88050A   21247.50694182  .00000104  00000-0  50530-5 0  9998
2 19210  82.5186 338.6813 0014462  49.1236 311.1242 15.06356843809630
SL-8 R/B                
1 19257U 88053B   21247.38182483  .00000009  00000-0  11723-4 0  9998
2 19257  74.0466 264.6796 0019411 136.3975 324.1332 14.37531418739793
COSMOS 1975             
1 19573U 88093A   21247.87213332  .00001108  00000-0  75348-4 0  9999
2 19573  82.5185 293.5991 0015635  87.4324 272.8693 15.05255670770313
SL-14 R/B               
1 19574U 88093B   21247.95371986  .00000093  00000-0  82789-5 0  9999
2 19574  82.5336 144.3949 0023114  77.1031 292.7318 14.83383241777852
SL-16 R/B               
1 19650U 88102B   21247.60688132  .00000254  00000-0  15336-3 0  9992
2 19650  71.0022  15.9374 0014620 349.7213  10.3608 14.15809532693741
INTERCOSMOS 24          
1 20261U 89080A   21248.01385824  .00000034  00000-0  14908-5 0  9998
2 20261  82.5979  92.5795 1202753 141.9151 227.3496 12.56208469459400
SL-14 R/B               
1 20262U 89080C   21247.69277012  .00000081  00000-0  21485-4 0  9990
2 20262  82.5956 149.3896 1236932 344.2815  12.2877 12.48980883454441
DELTA 2 R/B(1)          
1 20303U 89085B   21247.97295194  .00003556  00000-0  10860-3 0  9997
2 20303  35.6409  93.5315 0088510 175.6317 184.5200 15.29763953736113
DELTA 1 R/B             
1 20323U 89089B   21247.98436926  .00000041  00000-0  20103-4 0  9992
2 20323  97.1202 329.9016 0070127 272.8044  86.5128 14.48415682677741
ARIANE 40 R/B           
1 20443U 90005H   21247.89242044  .00000032  00000-0  25039-4 0  9994
2 20443  98.5227 313.5646 0011619  98.2200 262.0306 14.38141457656256
DELTA 2 R/B(1)          
1 20453U 90008B   21247.97526161  .00002924  00000-0  16246-3 0  9993
2 20453  35.6232 152.7623 0275098  58.9258 303.8152 14.86854702677367
COSMOS 2058             
1 20465U 90010A   21247.88053619  .00000439  00000-0  34579-4 0  9991
2 20465  82.4901 205.6055 0016385 138.1326 222.1153 14.98266294694863
SL-14 R/B               
1 20466U 90010B   21247.85469757  .00000077  00000-0  67970-5 0  9993
2 20466  82.5058  10.8638 0019492 320.9771  39.0035 14.81435717684524
SL-14 R/B               
1 20511U 90018B   21247.97258654  .00000087  00000-0  83937-5 0  9999
2 20511  82.5245 319.1304 0019016  99.4219 322.5784 14.80090090699960
HST                     
1 20580U 90037B   21247.52145059  .00000667  00000-0  29304-4 0  9992
2 20580  28.4695 261.8820 0002608 188.9951 297.5161 15.09722801522954
SL-16 R/B               
1 20625U 90046B   21247.98382186  .00000127  00000-0  90464-4 0  9992
2 20625  71.0002 155.1358 0016486 284.7762  75.1533 14.14674787615731
COSMOS 2084             
1 20663U 90055A   21247.95688232  .00000165  00000-0  33323-4 0  9995
2 20663  62.7935 123.7843 0082134  17.7760 342.6176 14.92300217689680
SL-6 R/B(2)             
1 20666U 90055D   21247.86839607  .00000077  00000-0  24789-4 0  9990
2 20666  62.7853  39.3735 0107814  43.6060 317.3491 14.92551112691097
SL-8 R/B                
1 20775U 90078B   21247.89224570  .00001532  00000-0  73820-4 0  9993
2 20775  82.9258 219.6098 0564156 256.0267  97.7601 14.36313841569494
SL-8 R/B                
1 21088U 91006B   21247.98063300  .00000010  00000-0 -55897-5 0  9991
2 21088  82.9429 314.7210 0021769 329.4934 205.3749 13.77175576537668
OKEAN-3                 
1 21397U 91039A   21247.92154365  .00000328  00000-0  28783-4 0  9990
2 21397  82.5204 114.1569 0019027 119.4042 240.9080 14.93149412639641
COSMOS 2151             
1 21422U 91042A   21247.90912363  .00000291  00000-0  25976-4 0  9991
2 21422  82.5000 219.7360 0013965 181.4776 178.6405 14.92291431617094
SL-14 R/B               
1 21423U 91042B   21247.50776017  .00000093  00000-0  92982-5 0  9994
2 21423  82.4957 321.8741 0016240 242.1282 117.8286 14.79839179630379
ERS-1                   
1 21574U 91050A   21247.62089259  .00000043  00000-0  29173-4 0  9994
2 21574  98.6546 208.6456 0033925  48.0115 312.3952 14.37812387578943
ARIANE 40 R/B           
1 21610U 91050F   21247.98200733  .00000021  00000-0  20144-4 0  9991
2 21610  98.4179 317.5294 0003440  26.0917 147.6197 14.40961965581999
INTERCOSMOS 25          
1 21819U 91086A   21247.88058155  .00000825  00000-0  15974-3 0  9995
2 21819  82.5821 219.9433 1517024  44.8810 326.5306 12.05300033297825
SL-8 R/B                
1 21876U 92008B   21247.76502200 -.00000004  00000-0 -20425-4 0  9994
2 21876  82.9252  52.1723 0035820  54.7664 317.0599 13.75681875482968
SL-8 R/B                
1 21938U 92020B   21247.93424037 -.00000012  00000-0 -28258-4 0  9998
2 21938  82.9284 296.5711 0028598 211.1434 323.9848 13.75291836474767
COSMOS 2219             
1 22219U 92076A   21247.87222164  .00000024  00000-0  37631-4 0  9998
2 22219  71.0601 219.3100 0018727 203.2505 156.7772 14.13672589485942
SL-16 R/B               
1 22220U 92076B   21247.92835772 -.00000270  00000-0 -11167-3 0  9991
2 22220  71.0002  55.9271 0010571  83.6522  77.7762 14.16474018488944
COSMOS 2221             
1 22236U 92080A   21247.85174669  .00000261  00000-0  25643-4 0  9999
2 22236  82.5074  43.6867 0015160 288.0929  71.8637 14.88092492556407
SL-16 R/B               
1 22285U 92093B   21247.93980112 -.00000049  00000-0 -73886-6 0  9994
2 22285  71.0208 220.0091 0006556 289.6915  70.3500 14.15068391480493
COSMOS 2228             
1 22286U 92094A   21247.60380197  .00000250  00000-0  24228-4 0  9993
2 22286  82.5232   0.6950 0022152  48.7357 311.5764 14.88318099530501
SL-16 R/B               
1 22566U 93016B   21247.92169771  .00000083  00000-0  67341-4 0  9994
2 22566  71.0061  72.7628 0012055 302.9369  57.0593 14.14972335469215
COSMOS 2242             
1 22626U 93024A   21247.89458561  .00000255  00000-0  24856-4 0  9999
2 22626  82.5229  28.7283 0019965  48.3207 311.9715 14.88168194534933
SL-16 R/B               
1 22803U 93059B   21247.69501445 -.00000163  00000-0 -57129-4 0  9991
2 22803  70.9879 243.0510 0018150 206.5837 153.4358 14.16841807446225
ARIANE 40 R/B           
1 22830U 93061H   21247.92514998  .00000000  00000-0  16994-4 0  9990
2 22830  98.7069 305.7224 0012055  98.4292 261.8258 14.31489397458666
COSMOS 2278             
1 23087U 94023A   21247.63898741 -.00000156  00000-0 -57263-4 0  9991
2 23087  71.0547  19.2109 0008178   9.7295 350.3984 14.13827272411975
SL-16 R/B               
1 23088U 94023B   21247.87284960  .00000241  00000-0  14973-3 0  9993
2 23088  70.9984 288.3099 0005440 275.2720  84.7781 14.14689898413165
SL-16 R/B               
1 23343U 94074B   21247.91958111  .00000060  00000-0  15717-4 0  9991
2 23343  97.9390 301.3098 0007536 148.6210  25.7203 14.76897854444012
SL-16 R/B               
1 23405U 94077B   21247.92691175 -.00000138  00000-0 -46445-4 0  9998
2 23405  70.9823 215.8836 0002239 206.0331 154.0679 14.15245886383223
ERS-2                   
1 23560U 95021A   21247.90688482  .00001475  00000-0  64333-4 0  9994
2 23560  98.5394 109.0612 0004723  93.9273 266.2501 15.24167167409795
ARIANE 40+ R/B          
1 23561U 95021B   21247.88680042  .00000050  00000-0  31343-4 0  9999
2 23561  98.6678 298.4319 0007270  24.5704 149.5507 14.38043091382442
SL-16 R/B               
1 23705U 95058B   21247.84465279 -.00000278  00000-0 -11892-3 0  9998
2 23705  71.0235  36.5510 0010245 113.6349 246.5850 14.15153547335148
SL-16 R/B               
1 24298U 96051B   21247.76047193 -.00000220  00000-0 -92981-4 0  9998
2 24298  70.8235  53.6523 0013533  47.6653 312.5611 14.12421272289095
ORBVIEW 2 (SEASTAR)     
1 24883U 97037A   21247.57457210  .00000047  00000-0  33143-4 0  9997
2 24883  98.6505   5.5813 0001650 207.6667 152.4430 14.33631304272343
SL-16 R/B               
1 25400U 98043G   21247.74994299 -.00000013  00000-0  12872-4 0  9993
2 25400  98.6417 182.4392 0010864 117.5657 242.6628 14.25481578204313
SL-16 R/B               
1 25407U 98045B   21247.73456798 -.00000138  00000-0 -45643-4 0  9999
2 25407  71.0123  43.8667 0007355 357.9320   2.1772 14.15843955193969
ISS (ZARYA)             
1 25544U 98067A   21248.17951969  .00002292  00000-0  50423-4 0  9997
2 25544  51.6456 307.1733 0003179 356.9369 113.8598 15.48596913300991
CZ-4B R/B               
1 25732U 99025C   21247.84683219 -.00000017  00000-0  13600-4 0  9994
2 25732  98.8967 284.4569 0037737  24.7561 149.4741 14.17698485154922
OKEAN-O                 
1 25860U 99039A   21247.80699506  .00000072  00000-0  17861-4 0  9996
2 25860  98.1782 279.6196 0000868 105.8482 254.2823 14.76757349191097
SL-16 R/B               
1 25861U 99039B   21247.99489598  .00000064  00000-0  16187-4 0  9996
2 25861  98.2032 264.8999 0015908 165.5712 216.8334 14.78659810193453
DELTA 2 R/B             
1 25876U 99041E   21247.81817629  .00000225  00000-0  77815-4 0  9990
2 25876  51.7675 355.8855 0531287 200.1668 157.7542 14.04621861131075
HELIOS 1B               
1 25977U 99064A   21247.93330457  .00000091  00000-0  18444-4 0  9993
2 25977  98.3217  65.6041 0001668  42.2203 317.9137 14.82578749172273
TERRA                   
1 25994U 99068A   21248.03219074 -.00000043  00000-0  46354-6 0  9990
2 25994  98.1710 320.9793 0001429  96.1653  25.9074 14.57125761155058
